OBJECT_NAME,OBJECT_ID,EPOCH,MEAN_MOTION,ECCENTRICITY,INCLINATION,RA_OF_ASC_NODE,ARG_OF_PERICENTER,MEAN_ANOMALY,EPHEMERIS_TYPE,CLASSIFICATION_TYPE,NORAD_CAT_ID,ELEMENT_SET_NO,REV_AT_EPOCH,BSTAR,MEAN_MOTION_DOT,MEAN_MOTION_DDOT
STARLINK-37787,2026-145R,2026-07-14T12:29:10.357728,15.75282746,.000136,97.2826,42.3732,105.5090,254.6325,0,U,69692,999,307,.13414E-2,.205666E-2,0
STARLINK-37962,2026-145S,2026-07-14T12:26:37.968000,15.75245270,.00011479,97.2835,42.3763,91.5434,268.5963,0,U,69693,999,307,.11463909E-2,.174823E-2,0
STARLINK-37953,2026-145T,2026-07-14T12:30:41.828544,15.75243504,.00011774,97.2832,42.3724,93.6617,266.4783,0,U,69694,999,307,.79257379E-3,.120039E-2,0
STARLINK-37926,2026-145U,2026-07-14T12:29:40.768800,15.75249030,.0002086,97.2811,42.3719,97.1417,263.0086,0,U,69695,999,307,.62652E-3,.94607E-3,0
STARLINK-37959,2026-145V,2026-07-14T12:28:09.412032,15.75223688,.00011842,97.2832,42.3739,118.2894,241.8491,0,U,69696,999,307,.83626963E-3,.126655E-2,0
STARLINK-37976,2026-145W,2026-07-14T13:55:34.425120,15.75224321,.0001377,97.2841,42.4451,85.4088,274.7335,0,U,69697,999,308,.89605E-3,.13587E-2,0
STARLINK-37912,2026-145X,2026-07-14T12:22:34.002912,15.75243072,.00012731,97.2836,42.3805,90.4264,269.7147,0,U,69698,999,307,.95980851E-3,.145836E-2,0
STARLINK-37974,2026-145Y,2026-07-14T13:53:02.031072,15.75207413,.000108,97.2845,42.4478,77.7143,282.4243,0,U,69699,999,308,.52965E-3,.7967E-3,0
STARLINK-37955,2026-145Z,2026-07-14T19:55:23.734848,15.75194931,.0001545,97.2837,42.7181,95.6328,264.5113,0,U,69700,999,312,.55501E-3,.83485E-3,0
STARLINK-38055,2026-147A,2026-07-14T15:54:27.177120,15.80848495,.0001362,97.2823,232.0178,117.1022,243.0385,0,U,69704,999,377,.33728E-3,.65043E-3,0
STARLINK-37898,2026-147B,2026-07-14T15:53:16.020672,15.80847598,.0001395,97.2827,232.0190,55.6653,304.4747,0,U,69705,999,377,.3733E-3,.72061E-3,0
STARLINK-37970,2026-147C,2026-07-14T15:52:11.033184,15.80855875,.0000801,97.2826,232.0202,107.5887,252.5469,0,U,69706,999,377,.41202E-3,.79646E-3,0
STARLINK-37975,2026-147D,2026-07-14T15:51:06.026688,15.80803920,.0001181,97.2829,232.0212,139.4088,220.7268,0,U,69707,999,377,.11354E-2,.222871E-2,0
STARLINK-37972,2026-147E,2026-07-14T15:50:01.317408,15.80801965,.0001243,97.2829,232.0218,117.0207,243.1188,0,U,69708,999,377,.10342E-2,.202491E-2,0
STARLINK-37963,2026-147F,2026-07-14T15:48:56.331648,15.80806094,.0000945,97.2827,232.0220,85.6930,274.4446,0,U,69709,999,377,.99955E-3,.195584E-2,0
STARLINK-37969,2026-147G,2026-07-14T15:47:51.408096,15.80813697,.0001205,97.2829,232.0243,124.7622,235.3760,0,U,69710,999,377,.10542E-2,.206625E-2,0
STARLINK-37956,2026-147H,2026-07-14T15:46:46.583040,15.80851636,.0001378,97.2831,232.0255,111.1102,249.0313,0,U,69711,999,377,.31968E-3,.61627E-3,0
STARLINK-38043,2026-147J,2026-07-14T15:45:41.296608,15.80853721,.0000945,97.2833,232.0267,159.3166,200.8141,0,U,69712,999,377,.1364E-3,.26108E-3,0
STARLINK-38020,2026-147K,2026-07-14T15:44:36.695328,15.80801646,.0001346,97.2827,232.0273,100.7821,259.3599,0,U,69713,999,377,.86546E-3,.16877E-2,0
STARLINK-38059,2026-147L,2026-07-14T15:43:31.132416,15.80798242,.0001792,97.2837,232.0297,189.3646,170.7589,0,U,69714,999,377,.11751E-2,.230809E-2,0
STARLINK-38061,2026-147M,2026-07-14T15:42:27.051264,15.80793663,.0001729,97.2836,232.0302,53.9737,306.1691,0,U,69715,999,377,.5162E-3,.99773E-3,0
STARLINK-38060,2026-147N,2026-07-14T15:41:21.918624,15.80809600,.0001238,97.2828,232.0301,61.0222,299.1170,0,U,69716,999,377,.10862E-2,.213011E-2,0
STARLINK-38040,2026-147P,2026-07-14T15:40:17.014080,15.80806351,.0001232,97.2821,232.0319,72.9872,287.1531,0,U,69717,999,377,.82484E-3,.160726E-2,0
STARLINK-37989,2026-147Q,2026-07-14T15:39:11.680128,15.80796037,.0000498,97.2833,232.0332,130.4893,229.6419,0,U,69718,999,377,.80355E-3,.156422E-2,0
STARLINK-38039,2026-147R,2026-07-14T14:06:57.862080,15.80813276,.0001689,97.2849,231.9673,92.0878,268.0584,0,U,69719,999,376,.88467E-3,.17269E-2,0
STARLINK-38003,2026-147S,2026-07-14T15:37:02.403264,15.80794434,.0001884,97.2825,232.0340,63.0318,297.1142,0,U,69720,999,377,.10541E-2,.20642E-2,0
STARLINK-38014,2026-147T,2026-07-14T15:35:57.433920,15.80810319,.0001626,97.2829,232.0351,61.9873,298.1560,0,U,69721,999,377,.86579E-3,.168906E-2,0
STARLINK-37915,2026-147U,2026-07-14T15:34:52.455936,15.80805896,.0001625,97.2822,232.0369,69.3380,290.8062,0,U,69722,999,377,.76443E-3,.148738E-2,0
STARLINK-38007,2026-147V,2026-07-14T15:38:19.332960,15.80796264,.0001604,97.2830,232.0323,76.8230,283.3217,0,U,69723,999,377,.81926E-3,.159545E-2,0
STARLINK-38008,2026-147W,2026-07-14T15:32:42.404928,15.80794238,.0001107,97.2827,232.0386,98.3501,261.7892,0,U,69724,999,377,.9538E-3,.186324E-2,0
